$$SOE
2460154.500000000, A.D. 2023-Jul-29 00:00:00.0000, 2.441134454306045E+08, -3.386996690129181E+08, 2.945550804174215E+07,
2460161.500000000, A.D. 2023-Aug-05 00:00:00.0000, 2.527364288406608E+08, -3.319036839028525E+08, 2.745600764812531E+07,
2460168.500000000, A.D. 2023-Aug-12 00:00:00.0000, 2.611914828587361E+08, -3.248872001635162E+08, 2.543826800737977E+07,
2460175.500000000, A.D. 2023-Aug-19 00:00:00.0000, 2.694724371923655E+08, -3.176541930681118E+08, 2.340357588224468E+07,
2460182.500000000, A.D. 2023-Aug-26 00:00:00.0000, 2.775732263621391E+08, -3.102088408290446E+08, 2.135323995746379E+07,
2460189.500000000, A.D. 2023-Sep-02 00:00:00.0000, 2.854878977627873E+08, -3.025555220333210E+08, 1.928858958341122E+07,
2460196.500000000, A.D. 2023-Sep-09 00:00:00.0000, 2.932106196777627E+08, -2.946988127913770E+08, 1.721097345084144E+07,
2460203.500000000, A.D. 2023-Sep-16 00:00:00.0000, 3.007356893939005E+08, -2.866434836592684E+08, 1.512175817947009E+07,
2460210.500000000, A.D. 2023-Sep-23 00:00:00.0000, 3.080575418100342E+08, -2.783944960505658E+08, 1.302232680865788E+07,
2460217.500000000, A.D. 2023-Sep-30 00:00:00.0000, 3.151707581772650E+08, -2.699569969525300E+08, 1.091407732195108E+07,
2460224.500000000, A.D. 2023-Oct-07 00:00:00.0000, 3.220700725927104E+08, -2.613363124961032E+08, 8.798421380220786E+06,
2460231.500000000, A.D. 2023-Oct-14 00:00:00.0000, 3.287503772603430E+08, -2.525379436982195E+08, 6.676782900202855E+06,
2460238.500000000, A.D. 2023-Oct-21 00:00:00.0000, 3.352067297227559E+08, -2.435675627787309E+08, 4.550596316583589E+06,
2460245.500000000, A.D. 2023-Oct-28 00:00:00.0000, 3.414343606172523E+08, -2.344310077998587E+08, 2.421304846993968E+06,
2460252.500000000, A.D. 2023-Nov-04 00:00:00.0000, 3.474286806845870E+08, -2.251342764092927E+08, 2.903588159596175E+05,
2460259.500000000, A.D. 2023-Nov-11 00:00:00.0000, 3.531852871865479E+08, -2.156835192990601E+08, -1.840786023003981E+06,
2460266.500000000, A.D. 2023-Nov-18 00:00:00.0000, 3.586999699312478E+08, -2.060850334581677E+08, -3.970670187888548E+06,
2460273.500000000, A.D. 2023-Nov-25 00:00:00.0000, 3.639687169593489E+08, -1.963452552117653E+08, -6.097832191337079E+06,
2460280.500000000, A.D. 2023-Dec-02 00:00:00.0000, 3.689877199007338E+08, -1.864707530750372E+08, -8.220810285097368E+06,
2460287.500000000, A.D. 2023-Dec-09 00:00:00.0000, 3.737533790612069E+08, -1.764682204991124E+08, -1.033814423293518E+07,
2460294.500000000, A.D. 2023-Dec-16 00:00:00.0000, 3.782623085089604E+08, -1.663444685151101E+08, -1.244837713257656E+07,
2460301.500000000, A.D. 2023-Dec-23 00:00:00.0000, 3.825113414940136E+08, -1.561064176076048E+08, -1.455005725752088E+07,
2460308.500000000, A.D. 2023-Dec-30 00:00:00.0000, 3.864975348495237E+08, -1.457610877897367E+08, -1.664173970499621E+07,
2460315.500000000, A.D. 2024-Jan-06 00:00:00.0000, 3.902181705921472E+08, -1.353155892656111E+08, -1.872198787569402E+07,
2460322.500000000, A.D. 2024-Jan-13 00:00:00.0000, 3.936707578815473E+08, -1.247771155108387E+08, -2.078937521952299E+07,
2460329.500000000, A.D. 2024-Jan-20 00:00:00.0000, 3.968530365522024E+08, -1.141529357091081E+08, -2.284248710296947E+07,
2460336.500000000, A.D. 2024-Jan-27 00:00:00.0000, 3.997629801822882E+08, -1.034503859165037E+08, -2.487992255411172E+07,
2460343.500000000, A.D. 2024-Feb-03 00:00:00.0000, 4.023987982666201E+08, -9.267685992731854E+07, -2.690029591910489E+07,
2460350.500000000, A.D. 2024-Feb-10 00:00:00.0000, 4.047589377676937E+08, -8.183980015785736E+07, -2.890223847510425E+07,
2460357.500000000, A.D. 2024-Feb-17 00:00:00.0000, 4.068420841818749E+08, -7.094668856565484E+07, -3.088440000756973E+07,
2460364.500000000, A.D. 2024-Feb-24 00:00:00.0000, 4.086471621569496E+08, -6.000503761460476E+07, -3.284545035007716E+07,
2460371.500000000, A.D. 2024-Mar-02 00:00:00.0000, 4.101733356926276E+08, -4.902238134383741E+07, -3.478408088823989E+07,
2460378.500000000, A.D. 2024-Mar-09 00:00:00.0000, 4.114200080664446E+08, -3.800626662867745E+07, -3.669900604212059E+07,
2460385.500000000, A.D. 2024-Mar-16 00:00:00.0000, 4.123868218842034E+08, -2.696424446123290E+07, -3.858896474389065E+07,
2460392.500000000, A.D. 2024-Mar-23 00:00:00.0000, 4.130736591569349E+08, -1.590386016388349E+07, -4.045272180723682E+07,
2460399.500000000, A.D. 2024-Mar-30 00:00:00.0000, 4.134806391748409E+08, -4.832642584270878E+06, -4.228906898237199E+07,
2460406.500000000, A.D. 2024-Apr-06 00:00:00.0000, 4.136081144477941E+08, 6.241904335629426E+06, -4.409682599338976E+07,
2460413.500000000, A.D. 2024-Apr-13 00:00:00.0000, 4.134566682729588E+08, 1.731230842843829E+07, -4.587484181320765E+07,
2460420.500000000, A.D. 2024-Apr-20 00:00:00.0000, 4.130271129869624E+08, 2.837113726354732E+07, -4.762199586766890E+07,
2460427.500000000, A.D. 2024-Apr-27 00:00:00.0000, 4.123204873971351E+08, 3.941100662104248E+07, -4.933719907329041E+07,
2460434.500000000, A.D. 2024-May-04 00:00:00.0000, 4.113380534919937E+08, 5.042458875592037E+07, -5.101939477203367E+07,
2460441.500000000, A.D. 2024-May-11 00:00:00.0000, 4.100812926834822E+08, 6.140462033566109E+07, -5.266755959142267E+07,
2460448.500000000, A.D. 2024-May-18 00:00:00.0000, 4.085519016805122E+08, 7.234391005967548E+07, -5.428070423462397E+07,
2460455.500000000, A.D. 2024-May-25 00:00:00.0000, 4.067517880391178E+08, 8.323534594082931E+07, -5.585787420303108E+07,
2460462.500000000, A.D. 2024-Jun-01 00:00:00.0000, 4.046830654709737E+08, 9.407190217856026E+07, -5.739815046180497E+07,
2460469.500000000, A.D. 2024-Jun-08 00:00:00.0000, 4.023480491779855E+08, 1.048466455872533E+08, -5.890065007331939E+07,
2460476.500000000, A.D. 2024-Jun-15 00:00:00.0000, 3.997492516312095E+08, 1.155527421119984E+08, -6.036452679076271E+07,
2460483.500000000, A.D. 2024-Jun-22 00:00:00.0000, 3.968893778053108E+08, 1.261834645974634E+08, -6.178897142327236E+07,
2460490.500000000, A.D. 2024-Jun-29 00:00:00.0000, 3.937713177675161E+08, 1.367321999838519E+08, -6.317321192733229E+07,
2460497.500000000, A.D. 2024-Jul-06 00:00:00.0000, 3.903981392890307E+08, 1.471924534519219E+08, -6.451651367056686E+07,
2460504.500000000, A.D. 2024-Jul-13 00:00:00.0000, 3.867730824464714E+08, 1.575578523342245E+08, -6.581817981681082E+07,
2460511.500000000, A.D. 2024-Jul-20 00:00:00.0000, 3.828995542454241E+08, 1.678221509378344E+08, -6.707755155730442E+07,
2460518.500000000, A.D. 2024-Jul-27 00:00:00.0000, 3.787811226296455E+08, 1.779792353174696E+08, -6.829400820778462E+07,
2460525.500000000, A.D. 2024-Aug-03 00:00:00.0000, 3.744215101685209E+08, 1.880231276233233E+08, -6.946696722906937E+07,
2460532.500000000, A.D. 2024-Aug-10 00:00:00.0000, 3.698245876077456E+08, 1.979479900195673E+08, -7.059588418885493E+07,
2460539.500000000, A.D. 2024-Aug-17 00:00:00.0000, 3.649943673492404E+08, 2.077481281969492E+08, -7.168025266963540E+07,
2460546.500000000, A.D. 2024-Aug-24 00:00:00.0000, 3.599349969063718E+08, 2.174179944602310E+08, -7.271960412966740E+07,
2460553.500000000, A.D. 2024-Aug-31 00:00:00.0000, 3.546507524680718E+08, 2.269521903332120E+08, -7.371350773541637E+07,
2460560.500000000, A.D. 2024-Sep-07 00:00:00.0000, 3.491460329552222E+08, 2.363454688125527E+08, -7.466157019177467E+07,
2460567.500000000, A.D. 2024-Sep-14 00:00:00.0000, 3.434253546708059E+08, 2.455927372704106E+08, -7.556343549929297E+07,
2460574.500000000, A.D. 2024-Sep-21 00:00:00.0000, 3.374933445278758E+08, 2.546890614240430E+08, -7.641878442059785E+07,
2460581.500000000, A.D. 2024-Sep-28 00:00:00.0000, 3.313547313828924E+08, 2.636296671549448E+08, -7.722733387816207E+07,
2460588.500000000, A.D. 2024-Oct-05 00:00:00.0000, 3.250143391617855E+08, 2.724099401877146E+08, -7.798883662400219E+07,
2460595.500000000, A.D. 2024-Oct-12 00:00:00.0000, 3.184770814312868E+08, 2.810254266149239E+08, -7.870308090740292E+07,
2460602.500000000, A.D. 2024-Oct-19 00:00:00.0000, 3.117479556758178E+08, 2.894718340053940E+08, -7.936989000452566E+07,
2460609.500000000, A.D. 2024-Oct-26 00:00:00.0000, 3.048320372590418E+08, 2.977450323038636E+08, -7.998912167500935E+07,
2460616.500000000, A.D. 2024-Nov-02 00:00:00.0000, 2.977344733382486E+08, 3.058410543831720E+08, -8.056066758379588E+07,
2460623.500000000, A.D. 2024-Nov-09 00:00:00.0000, 2.904604768378075E+08, 3.137560962793983E+08, -8.108445269763665E+07,
2460630.500000000, A.D. 2024-Nov-16 00:00:00.0000, 2.830153205160128E+08, 3.214865171204765E+08, -8.156043466080302E+07,
2460637.500000000, A.D. 2024-Nov-23 00:00:00.0000, 2.754043311796658E+08, 3.290288387094543E+08, -8.198860316061684E+07,
2460644.500000000, A.D. 2024-Nov-30 00:00:00.0000, 2.676328842616336E+08, 3.363797447318257E+08, -8.236897930795634E+07,
2460651.500000000, A.D. 2024-Dec-07 00:00:00.0000, 2.597063991881160E+08, 3.435360800201398E+08, -8.270161503990415E+07,
2460658.500000000, A.D. 2024-Dec-14 00:00:00.0000, 2.516303348540123E+08, 3.504948511106386E+08, -8.298659238420925E+07,
2460665.500000000, A.D. 2024-Dec-21 00:00:00.0000, 2.434101828917931E+08, 3.572532268608776E+08, -8.322402247601131E+07,
2460672.500000000, A.D. 2024-Dec-28 00:00:00.0000, 2.350514607109325E+08, 3.638085361742425E+08, -8.341404475287735E+07,
2460679.500000000, A.D. 2025-Jan-04 00:00:00.0000, 2.265597069122431E+08, 3.701582652185405E+08, -8.355682637520525E+07,
2460686.500000000, A.D. 2025-Jan-11 00:00:00.0000, 2.179404772590529E+08, 3.763000558053109E+08, -8.365256157021728E+07,
2460693.500000000, A.D. 2025-Jan-18 00:00:00.0000, 2.091993402883026E+08, 3.822317040190333E+08, -8.370147089079672E+07,
2460700.500000000, A.D. 2025-Jan-25 00:00:00.0000, 2.003418728045221E+08, 3.879511586318149E+08, -8.370380045111199E+07,
2460707.500000000, A.D. 2025-Feb-01 00:00:00.0000, 1.913736554460653E+08, 3.934565192849533E+08, -8.365982116042979E+07,
2460714.500000000, A.D. 2025-Feb-08 00:00:00.0000, 1.823002683827308E+08, 3.987460344688491E+08, -8.356982796094832E+07,
2460721.500000000, A.D. 2025-Feb-15 00:00:00.0000, 1.731272871747451E+08, 4.038180992921974E+08, -8.343413907604142E+07,
$$EOE